STARLINK-30505          
1 57972U 23151J   26067.11927383  .00035659  00000+0  13308-2 0  9991
2 57972  43.0004 345.0806 0001631 252.0236 108.0438 15.26785781135520
YAOGAN-43 01G           
1 60464U 24148G   26068.44348481  .00010133  00000+0  35873-3 0  9993
2 60464  35.0006  62.0013 0007382 306.3543  53.6492 15.28332833 87004
